AETHER-2                
1 58299U 23174AV  26068.71793741  .00008341  00000+0  26166-3 0  9990
2 58299  97.3931 151.9008 0008630 139.5247 220.6639 15.33264165129982
STARLINK-31132          
1 58777U 24011N   26068.84987925 -.00000284  00000+0  25388-5 0  9991
2 58777  53.1604 282.7891 0001185 105.6376 254.4755 15.30186472121581
